BKA 2                   
1 38708U 12039B   22326.42199109  .00007121  00000+0  29227-3 0  9996
2 38708  97.3155 222.4922 0002008  82.5099  27.9917 15.24520827573459
EXACTVIEW-1 (ADS-1B)    
1 38709U 12039C   22326.42696050  .00000056  00000+0  44635-4 0  9995
2 38709  98.9934  36.6989 0010386 328.7231  31.3328 14.24137215537225
TET-1                   
1 38710U 12039D   22322.14595134  .13257459  26344-5  16471-3 0  9999
2 38710  97.4692  57.2581 0008682 273.2579  86.7731 16.49472605581735
MKA-PN 1                
1 38711U 12039E   22326.22445991  .00000094  00000+0  60610-4 0  9995
2 38711  98.9902  35.9633 0010960 328.7583  31.2942 14.24443485537285
TIANLIAN 1-03           
1 38730U 12040A   22326.07271602  .00000150  00000+0  00000+0 0  9992
2 38730   2.4108  89.4531 0003473 359.2325  19.0088  1.00275553 37929
COSMOS 2481             
1 38733U 12041A   22326.27911528  .00000012  00000+0  15458-4 0  9991
2 38733  82.4736 167.5090 0019264  35.8108 324.4262 12.42392890468046
GONETS-M 3              
1 38734U 12041B   22326.20834145  .00000028  00000+0  12672-3 0  9995
2 38734  82.4735 160.8727 0016989  34.6765 325.5427 12.44833994468611
GONETS-M 4              
1 38736U 12041D   22326.24753464  .00000016  00000+0  45617-4 0  9998
2 38736  82.4787 164.8508 0025188  20.4656 339.7430 12.43837267468396
INTELSAT 20 (IS-20)     
1 38740U 12043A   22326.04702117 -.00000001  00000+0  00000+0 0  9999
2 38740   0.0120 157.9403 0003433  37.2883 311.2354  1.00271904 37766
HYLAS 2                 
1 38741U 12043B   22325.77611598  .00000178  00000+0  00000+0 0  9995
2 38741   0.0218 305.4155 0001575 291.1417 134.6318  1.00273631 37696
EXPRESS-MD2             
1 38745U 12044B   22326.08544685  .00020228  32877-5  49782-3 0  9992
2 38745  49.8679 306.6995 2071325 201.2177 148.8758 11.32422995406324
INTELSAT 21 (IS-21)     
1 38749U 12045A   22326.25870633 -.00000261  00000+0  00000+0 0  9990
2 38749   0.0163 296.2753 0002374 298.8932 221.2258  1.00270159 37573
SPOT 6                  
1 38755U 12047A   22326.45388638  .00000271  00000+0  68204-4 0  9995
2 38755  98.2182  31.4937 0001294  79.6394 280.4952 14.58523966543181
AEROCUBE 4.5A           
1 38767U 12048K   22325.47225088  .00004988  00000+0  34856-3 0  9993
2 38767  64.6656 337.3086 0161924 219.4481 139.4755 14.96456124174264
AEROCUBE 4.5B           
1 38768U 12048L   22326.29413539  .00005137  00000+0  32333-3 0  9990
2 38768  64.6656 285.4400 0145747 214.5277 144.6309 15.01916839174839
METOP-B                 
1 38771U 12049A   22326.46181713  .00000096  00000+0  63732-4 0  9997
2 38771  98.7101  23.9751 0000411  77.1964 109.7541 14.21495931528170
BEIDOU 15               
1 38775U 12050B   22325.56184716  .00000049  00000+0  00000+0 0  9991
2 38775  55.4962 106.3992 0010886 332.5195 332.2124  1.86231231 69384
ASTRA 2F                
1 38778U 12051A   22326.20592380  .00000174  00000+0  00000+0 0  9996
2 38778   0.0601 247.0453 0004348 343.5053 292.9703  1.00270687 37226
GSAT-10                 
1 38779U 12051B   22326.14516984 -.00000141  00000+0  00000+0 0  9991
2 38779   0.0835 100.9048 0004107 159.4071 296.1001  1.00270583 37222
VRSS-1                  
1 38782U 12052A   22326.34127670  .00000519  00000+0  81360-4 0  9999
2 38782  97.6449 356.5407 0017677 159.0786 201.1157 14.76434815547177
NAVSTAR 67 (USA 239)    
1 38833U 12053A   22325.04005423  .00000080  00000+0  00000+0 0  9994
2 38833  53.5185 196.9419 0132671  48.7349 312.4990  2.00563681 73287
GSAT0103 (GALILEO-FM3)  
1 38857U 12055A   22324.32276605  .00000105  00000+0  00000+0 0  9992
2 38857  55.1841 137.4123 0001970 228.8115 131.2082  1.70473693 62760
GSAT0104 (GALILEO-FM4)  
1 38858U 12055B   22325.46578996  .00000105  00000+0  00000+0 0  9997
2 38858  55.1849 137.3823 0001730 142.9795 217.0640  1.70473929 62786
SJ-9A                   
1 38860U 12056A   22326.33235166  .00000516  00000+0  73930-4 0  9990
2 38860  97.5841 339.9334 0027868 212.5369 147.4128 14.80183341545749
SJ-9B                   
1 38861U 12056B   22326.11358446  .00000871  00000+0  11482-3 0  9991
2 38861  97.5823 350.9326 0017285 200.4640 159.5884 14.82354509546140
INTELSAT 23 (IS-23)     
1 38867U 12057A   22326.34771595 -.00000261  00000+0  00000+0 0  9991
2 38867   0.0173 286.5375 0000670 201.7836   5.2146  1.00265891 37045
BEIDOU 16               
1 38953U 12059A   22326.53408795 -.00000151  00000+0  00000+0 0  9997
2 38953   1.3135  81.8880 0024677 291.5845 324.3545  1.00270138 36980
LUCH 5B                 
1 38977U 12061A   22325.97271549 -.00000113  00000+0  00000+0 0  9996
2 38977   7.6313  61.4096 0003466 126.3444 207.0679  1.00272695 37109
YAMAL 300K              
1 38978U 12061B   22325.84215778  .00000095  00000+0  00000+0 0  9993
2 38978   0.0160 286.4570 0000208 144.7505 115.7634  1.00270583 36565
STAR ONE C3             
1 38991U 12062A   22326.48075948 -.00000226  00000+0  00000+0 0  9990
2 38991   0.0429 100.2239 0001952 130.0972 289.2411  1.00273066 36790
EUTELSAT 21B            
1 38992U 12062B   22325.77419837  .00000153  00000+0  00000+0 0  9999
2 38992   0.0685   5.7022 0002701 235.6488 119.7177  1.00270612 36768
HUANJING 1C (HJ-1C)     
1 38997U 12064A   22326.57017913  .00059673  00000+0  65097-3 0  9996
2 38997  97.0665 352.1993 0005769  23.5032 127.7604 15.63175802563093
FENGNIAO 1 (FN-1)       
1 38998U 12064B   22326.35943962  .00011494  00000+0  18658-3 0  9995
2 38998  97.1239 359.3288 0005319  50.3351 309.8371 15.52874424562009
ECHOSTAR 16             
1 39008U 12065A   22326.07896580 -.00000258  00000+0  00000+0 0  9996
2 39008   0.0176 335.1712 0001881 269.2096 143.6261  1.00269496 36740
YAOGAN 16A              
1 39011U 12066A   22326.27395379 -.00000115  00000+0 -29512-4 0  9990
2 39011  63.3656  50.5737 0325868  17.4943 343.6997 13.45238945490864
YAOGAN 16B              
1 39012U 12066B   22326.27658427 -.00000087  00000+0  50751-5 0  9994
2 39012  63.3661  50.7174 0325804  17.2827 343.8984 13.45235197490872
YAOGAN 16C              
1 39013U 12066C   22325.97532508 -.00000128  00000+0 -46041-4 0  9995
2 39013  63.3674  50.8744 0325846  16.9327 344.2274 13.45238965490859
CHINASAT 12 (ZX 12)     
1 39017U 12067A   22326.43174546 -.00000183  00000+0  00000+0 0  9996
2 39017   0.0049  11.2546 0002793 224.1784  68.9220  1.00272421 36648
PLEIADES 1B             
1 39019U 12068A   22326.40390041  .00000234  00000+0  60151-4 0  9990
2 39019  98.1825  39.0777 0001318  88.1145 272.0208 14.58547731530958
EUTELSAT 70B            
1 39020U 12069A   22326.43729965 -.00000020  00000+0  00000+0 0  9993
2 39020   0.0670 340.9700 0006488 253.9575  54.4048  1.00271257 36542
YAMAL 402               
1 39022U 12070A   22326.06781404  .00000109  00000+0  00000+0 0  9999
2 39022   0.0226  94.9452 0004160 144.5973 260.8451  1.00272775 36539
GOKTURK 2               
1 39030U 12073A   22326.45059348  .00000345  00000+0  61222-4 0  9999
2 39030  97.8294 200.0865 0001270 118.4358 241.6963 14.72993781532616
SKYNET 5D               
1 39034U 12075A   22325.80396594  .00000122  00000+0  00000+0 0  9995
2 39034   0.0750 358.5698 0004256 240.0909 164.3240  1.00269936 36081
MEXSAT 3                
1 39035U 12075B   22326.45500043 -.00000002  00000+0  00000+0 0  9992
2 39035   0.0118 353.5213 0002553 236.1092 240.8162  1.00271057 36412
COSMOS 2482             
1 39057U 13001A   22325.87248024  .00000034  00000+0  17507-3 0  9997
2 39057  82.4972 311.1674 0027655 350.8469   9.2110 12.42929619446878
COSMOS 2483             
1 39058U 13001B   22326.22905238  .00000039  00000+0  20391-3 0  9995
2 39058  82.4976 306.9364 0016610 345.5870  14.4734 12.43973029447288
COSMOS 2484             
1 39059U 13001C   22326.23941579  .00000045  00000+0  25525-3 0  9996
2 39059  82.5005 312.0119 0026783 359.1456   0.9576 12.42896415446906
TDRS 11                 
1 39070U 13004A   22326.16556642  .00000098  00000+0  00000+0 0  9992
2 39070   2.8094 350.8629 0003212  74.0058 241.5818  1.00266725 35915
GLOBALSTAR M097         
1 39072U 13005A   22326.11034838 -.00000100  00000+0  18847-4 0  9996
2 39072  52.0044 250.0378 0000982  43.7275 316.3669 12.62265756452423
GLOBALSTAR M093         
1 39073U 13005B   22326.16305915 -.00000091  00000+0  71898-4 0  9993
2 39073  51.9808 244.6828 0001131  39.2080 320.8868 12.62266322452421
GLOBALSTAR M094         
1 39074U 13005C   22326.00472668 -.00000076  00000+0  15356-3 0  9996
2 39074  51.9930 158.6097 0001141  84.3640 275.7357 12.62266174453915
GLOBALSTAR M096         
1 39075U 13005D   22326.01799312 -.00000074  00000+0  16473-3 0  9995
2 39075  52.0059 206.3515 0001180  61.4495 298.6490 12.62268212453167
GLOBALSTAR M078         
1 39076U 13005E   22325.59572041 -.00000088  00000+0  87270-4 0  9995
2 39076  51.9878 293.4227 0000403 294.0693  66.0131 12.62275308451388
GLOBALSTAR M095         
1 39077U 13005F   22326.09682713 -.00000111  00000+0 -42262-4 0  9990
2 39077  51.9805 289.5566 0000702 353.5458   6.5399 12.62263820451665
AMAZONAS 3              
1 39078U 13006A   22325.48750257 -.00000259  00000+0  00000+0 0  9994
2 39078   0.0242 218.2441 0004795  10.3123 306.4396  1.00272976 31834
AZERSPACE 1             
1 39079U 13006B   22325.78660469  .00000156  00000+0  00000+0 0  9998
2 39079   0.0340  80.1267 0002113 181.3748 128.4665  1.00269246 35730
LANDSAT 8               
1 39084U 13008A   22326.43339170  .00000261  00000+0  67925-4 0  9992
2 39084  98.2070  34.6079 0001254 100.9833 259.1507 14.57106482520001
SARAL                   
1 39086U 13009A   22325.80714887  .00000077  00000+0  45047-4 0  9993
2 39086  98.5459 149.1371 0001588 126.8857 233.2473 14.32048174509005
SAPPHIRE                
1 39088U 13009C   22326.14291346  .00000072  00000+0  40650-4 0  9993
2 39088  98.4178 157.9215 0011652 162.5783 197.5804 14.34344478509745
